[{"OBJECT_NAME":"STARLINK-31810","OBJECT_ID":"2024-093T","EPOCH":"2026-03-09T10:20:39.916320","MEAN_MOTION":15.27570549,"ECCENTRICITY":0.00024213,"INCLINATION":43.0048,"RA_OF_ASC_NODE":210.5447,"ARG_OF_PERICENTER":282.6093,"MEAN_ANOMALY":77.4488,"EPHEMERIS_TYPE":0,"CLASSIFICATION_TYPE":"U","NORAD_CAT_ID":59799,"ELEMENT_SET_NO":999,"REV_AT_EPOCH":10265,"BSTAR":5.0108099e-5,"MEAN_MOTION_DOT":1.116e-5,"MEAN_MOTION_DDOT":0},{"OBJECT_NAME":"CZ-2C DEB","OBJECT_ID":"2011-030E","EPOCH":"2026-03-09T22:02:28.057920","MEAN_MOTION":15.23147202,"ECCENTRICITY":0.00216086,"INCLINATION":98.1958,"RA_OF_ASC_NODE":48.5667,"ARG_OF_PERICENTER":313.6999,"MEAN_ANOMALY":74.4133,"EPHEMERIS_TYPE":0,"CLASSIFICATION_TYPE":"U","NORAD_CAT_ID":37734,"ELEMENT_SET_NO":999,"REV_AT_EPOCH":78227,"BSTAR":0.0029824689,"MEAN_MOTION_DOT":0.00071429,"MEAN_MOTION_DDOT":0}]
